DLR-TUBSAT              
1 25757U 99029B   26162.57554073  .00000082  00000+0  31892-4 0  9994
2 25757  98.6694 157.8950 0014412  12.1658 347.9882 14.52425467432437
DMSP 5D-3 F16 (USA 172) 
1 28054U 03048A   26162.71819122 -.00000004  00000+0  21342-4 0  9992
2 28054  98.9891 186.5102 0007478 154.3447 268.3104 14.14482632168714
DMSP 5D-3 F17 (USA 191) 
1 29522U 06050A   26162.65421281  .00000021  00000+0  33349-4 0  9995
2 29522  98.7378 169.3375 0011294  73.5160 286.7254 14.14992259 11649
DEIMOS-1                
1 35681U 09041A   26162.69237451  .00000788  00000+0  12360-3 0  9998
2 35681  97.7397 320.1589 0001300 137.8352 222.2958 14.75233344906076
DUBAISAT-1              
1 35682U 09041B   26162.39116850  .00000627  00000+0  10044-3 0  9994
2 35682  98.0044 295.7128 0011741  90.1964 270.0590 14.75114193904246
DMSP 5D-3 F18 (USA 210) 
1 35951U 09057A   26162.69593924  .00000235  00000+0  14487-3 0  9994
2 35951  98.9035 143.4770 0009842 266.9953  93.0093 14.14893754858818
DEIMOS-2                
1 40013U 14033D   26162.69008200  .00001096  00000+0  10875-3 0  9990
2 40013  97.5847  37.3722 0001949  55.9114 304.2291 14.93713630636904
CYGFM05                 
1 41884U 16078A   26162.66381063  .00022604  00000+0  30903-3 0  9998
2 41884  34.9572 297.1583 0006776  93.9332 266.2167 15.56428769527891
CYGFM08                 
1 41888U 16078E   26162.62383803  .00027747  00000+0  33436-3 0  9999
2 41888  34.9433 278.2499 0007813 121.6627 238.4861 15.59731170528109
CYGFM07                 
1 41890U 16078G   26162.51932837  .00025052  00000+0  30112-3 0  9992
2 41890  34.9452 267.2924 0006376 139.1708 220.9495 15.59825422528115
